ORBCOMM FM33            
1 25983U 99065D   24315.27199993  .00005310  00000+0  17536-2 0  9992
2 25983  45.0293 318.9267 0008124  25.0368 335.0874 14.38856208304526
ORBCOMM FM36            
1 25984U 99065E   24315.57357281  .00005969  00000+0  20438-2 0  9997
2 25984  45.0397  46.0502 0005083 266.7707  93.2560 14.36929382302968
ORBCOMM FM35            
1 25985U 99065F   24315.54910121  .00003939  00000+0  13871-2 0  9991
2 25985  45.0396  49.6158 0002172 352.1864   7.8949 14.36149957303341
ORBCOMM FM34            
1 25986U 99065G   24315.52083930  .00004412  00000+0  15465-2 0  9997
2 25986  45.0394  50.2911 0004175 299.4394  60.6037 14.36175806303450
ORBCOMM FM38            
1 33060U 08031A   24315.61283403  .00008162  00000+0  11073-2 0  9996
2 33060  48.4396 275.5585 0005220 178.8115 181.2813 14.79471939882360
ORBCOMM FM29            
1 33062U 08031C   24315.21729104  .00009146  00000+0  12469-2 0  9990
2 33062  48.4389 292.5223 0005979 161.2270 212.1416 14.79137001881711
ORBCOMM FM39            
1 33063U 08031D   24315.51927714  .00006899  00000+0  97529-3 0  9994
2 33063  48.4406 313.1304 0006708 136.4158 223.7287 14.77915038881437
