<?xml version="1.0" encoding="UTF-8"?>
<ndm xmlns:xsi="http://www.w3.org/2001/XMLSchema-instance" xsi:noNamespaceSchemaLocation="https://sanaregistry.org/r/ndmxml_unqualified/ndmxml-2.0.0-master-2.0.xsd">
<omm id="CCSDS_OMM_VERS" version="2.0">
<header><CREATION_DATE/><ORIGINATOR/></header><body><segment><metadata><OBJECT_NAME>ORBCOMM FM33</OBJECT_NAME><OBJECT_ID>1999-065D</OBJECT_ID><CENTER_NAME>EARTH</CENTER_NAME><REF_FRAME>TEME</REF_FRAME><TIME_SYSTEM>UTC</TIME_SYSTEM><MEAN_ELEMENT_THEORY>SGP4</MEAN_ELEMENT_THEORY></metadata><data><meanElements><EPOCH>2024-11-10T06:31:40.793952</EPOCH><MEAN_MOTION>14.38856208</MEAN_MOTION><ECCENTRICITY>.0008124</ECCENTRICITY><INCLINATION>45.0293</INCLINATION><RA_OF_ASC_NODE>318.9267</RA_OF_ASC_NODE><ARG_OF_PERICENTER>25.0368</ARG_OF_PERICENTER><MEAN_ANOMALY>335.0874</MEAN_ANOMALY></meanElements><tleParameters><EPHEMERIS_TYPE>0</EPHEMERIS_TYPE><CLASSIFICATION_TYPE>U</CLASSIFICATION_TYPE><NORAD_CAT_ID>25983</NORAD_CAT_ID><ELEMENT_SET_NO>999</ELEMENT_SET_NO><REV_AT_EPOCH>30452</REV_AT_EPOCH><BSTAR>.17536E-2</BSTAR><MEAN_MOTION_DOT>.531E-4</MEAN_MOTION_DOT><MEAN_MOTION_DDOT>0</MEAN_MOTION_DDOT></tleParameters></data></segment></body></omm>
<omm id="CCSDS_OMM_VERS" version="2.0">
<header><CREATION_DATE/><ORIGINATOR/></header><body><segment><metadata><OBJECT_NAME>ORBCOMM FM36</OBJECT_NAME><OBJECT_ID>1999-065E</OBJECT_ID><CENTER_NAME>EARTH</CENTER_NAME><REF_FRAME>TEME</REF_FRAME><TIME_SYSTEM>UTC</TIME_SYSTEM><MEAN_ELEMENT_THEORY>SGP4</MEAN_ELEMENT_THEORY></metadata><data><meanElements><EPOCH>2024-11-10T13:45:56.690784</EPOCH><MEAN_MOTION>14.36929382</MEAN_MOTION><ECCENTRICITY>.0005083</ECCENTRICITY><INCLINATION>45.0397</INCLINATION><RA_OF_ASC_NODE>46.0502</RA_OF_ASC_NODE><ARG_OF_PERICENTER>266.7707</ARG_OF_PERICENTER><MEAN_ANOMALY>93.2560</MEAN_ANOMALY></meanElements><tleParameters><EPHEMERIS_TYPE>0</EPHEMERIS_TYPE><CLASSIFICATION_TYPE>U</CLASSIFICATION_TYPE><NORAD_CAT_ID>25984</NORAD_CAT_ID><ELEMENT_SET_NO>999</ELEMENT_SET_NO><REV_AT_EPOCH>30296</REV_AT_EPOCH><BSTAR>.20438E-2</BSTAR><MEAN_MOTION_DOT>.5969E-4</MEAN_MOTION_DOT><MEAN_MOTION_DDOT>0</MEAN_MOTION_DDOT></tleParameters></data></segment></body></omm>
<omm id="CCSDS_OMM_VERS" version="2.0">
<header><CREATION_DATE/><ORIGINATOR/></header><body><segment><metadata><OBJECT_NAME>ORBCOMM FM35</OBJECT_NAME><OBJECT_ID>1999-065F</OBJECT_ID><CENTER_NAME>EARTH</CENTER_NAME><REF_FRAME>TEME</REF_FRAME><TIME_SYSTEM>UTC</TIME_SYSTEM><MEAN_ELEMENT_THEORY>SGP4</MEAN_ELEMENT_THEORY></metadata><data><meanElements><EPOCH>2024-11-10T13:10:42.344544</EPOCH><MEAN_MOTION>14.36149957</MEAN_MOTION><ECCENTRICITY>.0002172</ECCENTRICITY><INCLINATION>45.0396</INCLINATION><RA_OF_ASC_NODE>49.6158</RA_OF_ASC_NODE><ARG_OF_PERICENTER>352.1864</ARG_OF_PERICENTER><MEAN_ANOMALY>7.8949</MEAN_ANOMALY></meanElements><tleParameters><EPHEMERIS_TYPE>0</EPHEMERIS_TYPE><CLASSIFICATION_TYPE>U</CLASSIFICATION_TYPE><NORAD_CAT_ID>25985</NORAD_CAT_ID><ELEMENT_SET_NO>999</ELEMENT_SET_NO><REV_AT_EPOCH>30334</REV_AT_EPOCH><BSTAR>.13871E-2</BSTAR><MEAN_MOTION_DOT>.3939E-4</MEAN_MOTION_DOT><MEAN_MOTION_DDOT>0</MEAN_MOTION_DDOT></tleParameters></data></segment></body></omm>
<omm id="CCSDS_OMM_VERS" version="2.0">
<header><CREATION_DATE/><ORIGINATOR/></header><body><segment><metadata><OBJECT_NAME>ORBCOMM FM34</OBJECT_NAME><OBJECT_ID>1999-065G</OBJECT_ID><CENTER_NAME>EARTH</CENTER_NAME><REF_FRAME>TEME</REF_FRAME><TIME_SYSTEM>UTC</TIME_SYSTEM><MEAN_ELEMENT_THEORY>SGP4</MEAN_ELEMENT_THEORY></metadata><data><meanElements><EPOCH>2024-11-10T12:30:00.515520</EPOCH><MEAN_MOTION>14.36175806</MEAN_MOTION><ECCENTRICITY>.0004175</ECCENTRICITY><INCLINATION>45.0394</INCLINATION><RA_OF_ASC_NODE>50.2911</RA_OF_ASC_NODE><ARG_OF_PERICENTER>299.4394</ARG_OF_PERICENTER><MEAN_ANOMALY>60.6037</MEAN_ANOMALY></meanElements><tleParameters><EPHEMERIS_TYPE>0</EPHEMERIS_TYPE><CLASSIFICATION_TYPE>U</CLASSIFICATION_TYPE><NORAD_CAT_ID>25986</NORAD_CAT_ID><ELEMENT_SET_NO>999</ELEMENT_SET_NO><REV_AT_EPOCH>30345</REV_AT_EPOCH><BSTAR>.15465E-2</BSTAR><MEAN_MOTION_DOT>.4412E-4</MEAN_MOTION_DOT><MEAN_MOTION_DDOT>0</MEAN_MOTION_DDOT></tleParameters></data></segment></body></omm>
<omm id="CCSDS_OMM_VERS" version="2.0">
<header><CREATION_DATE/><ORIGINATOR/></header><body><segment><metadata><OBJECT_NAME>ORBCOMM FM38</OBJECT_NAME><OBJECT_ID>2008-031A</OBJECT_ID><CENTER_NAME>EARTH</CENTER_NAME><REF_FRAME>TEME</REF_FRAME><TIME_SYSTEM>UTC</TIME_SYSTEM><MEAN_ELEMENT_THEORY>SGP4</MEAN_ELEMENT_THEORY></metadata><data><meanElements><EPOCH>2024-11-10T14:42:28.860192</EPOCH><MEAN_MOTION>14.79471939</MEAN_MOTION><ECCENTRICITY>.000522</ECCENTRICITY><INCLINATION>48.4396</INCLINATION><RA_OF_ASC_NODE>275.5585</RA_OF_ASC_NODE><ARG_OF_PERICENTER>178.8115</ARG_OF_PERICENTER><MEAN_ANOMALY>181.2813</MEAN_ANOMALY></meanElements><tleParameters><EPHEMERIS_TYPE>0</EPHEMERIS_TYPE><CLASSIFICATION_TYPE>U</CLASSIFICATION_TYPE><NORAD_CAT_ID>33060</NORAD_CAT_ID><ELEMENT_SET_NO>999</ELEMENT_SET_NO><REV_AT_EPOCH>88236</REV_AT_EPOCH><BSTAR>.11073E-2</BSTAR><MEAN_MOTION_DOT>.8162E-4</MEAN_MOTION_DOT><MEAN_MOTION_DDOT>0</MEAN_MOTION_DDOT></tleParameters></data></segment></body></omm>
<omm id="CCSDS_OMM_VERS" version="2.0">
<header><CREATION_DATE/><ORIGINATOR/></header><body><segment><metadata><OBJECT_NAME>ORBCOMM FM29</OBJECT_NAME><OBJECT_ID>2008-031C</OBJECT_ID><CENTER_NAME>EARTH</CENTER_NAME><REF_FRAME>TEME</REF_FRAME><TIME_SYSTEM>UTC</TIME_SYSTEM><MEAN_ELEMENT_THEORY>SGP4</MEAN_ELEMENT_THEORY></metadata><data><meanElements><EPOCH>2024-11-10T05:12:53.945856</EPOCH><MEAN_MOTION>14.79137001</MEAN_MOTION><ECCENTRICITY>.0005979</ECCENTRICITY><INCLINATION>48.4389</INCLINATION><RA_OF_ASC_NODE>292.5223</RA_OF_ASC_NODE><ARG_OF_PERICENTER>161.2270</ARG_OF_PERICENTER><MEAN_ANOMALY>212.1416</MEAN_ANOMALY></meanElements><tleParameters><EPHEMERIS_TYPE>0</EPHEMERIS_TYPE><CLASSIFICATION_TYPE>U</CLASSIFICATION_TYPE><NORAD_CAT_ID>33062</NORAD_CAT_ID><ELEMENT_SET_NO>999</ELEMENT_SET_NO><REV_AT_EPOCH>88171</REV_AT_EPOCH><BSTAR>.12469E-2</BSTAR><MEAN_MOTION_DOT>.9146E-4</MEAN_MOTION_DOT><MEAN_MOTION_DDOT>0</MEAN_MOTION_DDOT></tleParameters></data></segment></body></omm>
<omm id="CCSDS_OMM_VERS" version="2.0">
<header><CREATION_DATE/><ORIGINATOR/></header><body><segment><metadata><OBJECT_NAME>ORBCOMM FM39</OBJECT_NAME><OBJECT_ID>2008-031D</OBJECT_ID><CENTER_NAME>EARTH</CENTER_NAME><REF_FRAME>TEME</REF_FRAME><TIME_SYSTEM>UTC</TIME_SYSTEM><MEAN_ELEMENT_THEORY>SGP4</MEAN_ELEMENT_THEORY></metadata><data><meanElements><EPOCH>2024-11-10T12:27:45.544896</EPOCH><MEAN_MOTION>14.77915038</MEAN_MOTION><ECCENTRICITY>.0006708</ECCENTRICITY><INCLINATION>48.4406</INCLINATION><RA_OF_ASC_NODE>313.1304</RA_OF_ASC_NODE><ARG_OF_PERICENTER>136.4158</ARG_OF_PERICENTER><MEAN_ANOMALY>223.7287</MEAN_ANOMALY></meanElements><tleParameters><EPHEMERIS_TYPE>0</EPHEMERIS_TYPE><CLASSIFICATION_TYPE>U</CLASSIFICATION_TYPE><NORAD_CAT_ID>33063</NORAD_CAT_ID><ELEMENT_SET_NO>999</ELEMENT_SET_NO><REV_AT_EPOCH>88143</REV_AT_EPOCH><BSTAR>.97529E-3</BSTAR><MEAN_MOTION_DOT>.6899E-4</MEAN_MOTION_DOT><MEAN_MOTION_DDOT>0</MEAN_MOTION_DDOT></tleParameters></data></segment></body></omm>

</ndm>
